{"epoch":1784902576,"count":18312,"objects":[{"id":"27607","name":"SAUDISAT 1C","type":"PAYLOAD","l1":"1 27607U 02058C   26205.24220061  .00001104  00000-0  14711-3 0  9992","l2":"2 27607  64.5525  14.3305 0074248 255.6154 103.6703 14.83113955269951"},{"id":"28371","name":"SAUDISAT 2","type":"PAYLOAD","l1":"1 28371U 04025F   26205.25835886  .00000258  00000-0  68707-4 0  9999","l2":"2 28371  98.5526 206.2016 0024665 180.0033 180.1168 14.56702257171141"},{"id":"31118","name":"SAUDISAT 3","type":"PAYLOAD","l1":"1 31118U 07012B   26204.84364104  .00000250  00000-0  48513-4 0  9990","l2":"2 31118  98.1471 155.2723 0015943 109.2109 251.0824 14.71444117 33131"},{"id":"41784","name":"PISAT","type":"PAYLOAD","l1":"1 41784U 16059B   26204.99379157  .00000948  00000-0  16839-3 0  9990","l2":"2 41784  97.8196 203.8685 0030578  88.0656 272.4052 14.69042320525144"},{"id":"42831","name":"FLYING LAPTOP","type":"PAYLOAD","l1":"1 42831U 17042G   26205.31100464  .00002961  00000-0  23347-3 0  9996","l2":"2 42831  97.4851 359.4578 0019072   3.5658 356.5700 15.01356238492028"},{"id":"46495","name":"SALSAT","type":"PAYLOAD","l1":"1 46495U 20068K   26205.22681703  .00008806  00000-0  30305-3 0  9994","l2":"2 46495  97.8865 210.5620 0010183 161.9998 198.1604 15.30274447321029"}]}